{"type": "FeatureCollection", "features": [ {"type": "Feature", "properties": {"norad_id": 40701, "name": "GAOFEN-8", "group": "resource", "lat": 33.00221431972579, "lon": 172.1614220812354, "alt_km": 443.75557612219654, "timestamp": "2025-12-24T11:32:59.661113+00:00", "meta": {"OBJECT_NAME": "GAOFEN-8", "OBJECT_ID": "2015-030A", "EPOCH": "2025-12-24T05:09:48.589344", "MEAN_MOTION": 15.38939246, "ECCENTRICITY": 0.00115, "INCLINATION": 97.6906, "RA_OF_ASC_NODE": 176.9173, "ARG_OF_PERICENTER": 97.8473, "MEAN_ANOMALY": 262.4077, "EPHEMERIS_TYPE": 0, "CLASSIFICATION_TYPE": "U", "NORAD_CAT_ID": 40701, "ELEMENT_SET_NO": 999, "REV_AT_EPOCH": 58447, "BSTAR": 0.00085105, "MEAN_MOTION_DOT": 0.00032883, "MEAN_MOTION_DDOT": 0}, "tle": {"line1": "1 40701U 15030A   25358.21514571  .00032883  00000+0  85105-3 0  9995", "line2": "2 40701  97.6906 176.9173 0011500  97.8473 262.4077 15.38939246584476"}}, "geometry": {"type": "Point", "coordinates": [172.1614220812354, 33.00221431972579]}}, {"type": "Feature", "properties": {"norad_id": 40718, "name": "CARBONITE 1 (CBNT-1)", "group": "resource", "lat": 56.52659861038235, "lon": 10.720718127718836, "alt_km": 605.1484782624821, "timestamp": "2025-12-24T11:32:59.661123+00:00", "meta": {"OBJECT_NAME": "CARBONITE 1 (CBNT-1)", "OBJECT_ID": "2015-032D", "EPOCH": "2025-12-24T04:31:14.532096", "MEAN_MOTION": 14.8279298, "ECCENTRICITY": 0.0015258, "INCLINATION": 97.6398, "RA_OF_ASC_NODE": 178.7285, "ARG_OF_PERICENTER": 144.5519, "MEAN_ANOMALY": 215.6712, "EPHEMERIS_TYPE": 0, "CLASSIFICATION_TYPE": "U", "NORAD_CAT_ID": 40718, "ELEMENT_SET_NO": 999, "REV_AT_EPOCH": 56340, "BSTAR": 0.00029321, "MEAN_MOTION_DOT": 2.325e-05, "MEAN_MOTION_DDOT": 0}, "tle": {"line1": "1 40718U 15032D   25358.18836264  .00002325  00000+0  29321-3 0  9993", "line2": "2 40718  97.6398 178.7285 0015258 144.5519 215.6712 14.82792980563404"}}, "geometry": {"type": "Point", "coordinates": [10.720718127718836, 56.52659861038235]}}, {"type": "Feature", "properties": {"norad_id": 40878, "name": "YAOGAN-27", "group": "resource", "lat": -14.142371223165227, "lon": -9.855774620242979, "alt_km": 1203.9897457222132, "timestamp": "2025-12-24T11:32:59.661134+00:00", "meta": {"OBJECT_NAME": "YAOGAN-27", "OBJECT_ID": "2015-040A", "EPOCH": "2025-12-24T04:19:28.957728", "MEAN_MOTION": 13.1606242, "ECCENTRICITY": 0.0007546, "INCLINATION": 100.1015, "RA_OF_ASC_NODE": 347.2825, "ARG_OF_PERICENTER": 258.2571, "MEAN_ANOMALY": 101.7697, "EPHEMERIS_TYPE": 0, "CLASSIFICATION_TYPE": "U", "NORAD_CAT_ID": 40878, "ELEMENT_SET_NO": 999, "REV_AT_EPOCH": 49464, "BSTAR": 0.0013749, "MEAN_MOTION_DOT": 4.8e-06, "MEAN_MOTION_DDOT": 0}, "tle": {"line1": "1 40878U 15040A   25358.18019627  .00000480  00000+0  13749-2 0  9991", "line2": "2 40878 100.1015 347.2825 0007546 258.2571 101.7697 13.16062420494643"}}, "geometry": {"type": "Point", "coordinates": [-9.855774620242979, -14.142371223165227]}}, {"type": "Feature", "properties": {"norad_id": 40894, "name": "GAOFEN-9 01", "group": "resource", "lat": 29.192808505743404, "lon": 32.62064249678657, "alt_km": 604.142934674258, "timestamp": "2025-12-24T11:32:59.661144+00:00", "meta": {"OBJECT_NAME": "GAOFEN-9 01", "OBJECT_ID": "2015-047A", "EPOCH": "2025-12-24T04:56:17.867904", "MEAN_MOTION": 14.824493, "ECCENTRICITY": 0.0027456, "INCLINATION": 97.6528, "RA_OF_ASC_NODE": 36.6654, "ARG_OF_PERICENTER": 357.2527, "MEAN_ANOMALY": 2.8532, "EPHEMERIS_TYPE": 0, "CLASSIFICATION_TYPE": "U", "NORAD_CAT_ID": 40894, "ELEMENT_SET_NO": 999, "REV_AT_EPOCH": 55426, "BSTAR": 0.0001423, "MEAN_MOTION_DOT": 1.097e-05, "MEAN_MOTION_DDOT": 0}, "tle": {"line1": "1 40894U 15047A   25358.20576236  .00001097  00000+0  14230-3 0  9995", "line2": "2 40894  97.6528  36.6654 0027456 357.2527   2.8532 14.82449300554266"}}, "geometry": {"type": "Point", "coordinates": [32.62064249678657, 29.192808505743404]}}, {"type": "Feature", "properties": {"norad_id": 41026, "name": "YAOGAN-28", "group": "resource", "lat": 25.996650777572345, "lon": -40.48130285168102, "alt_km": 487.6949441061324, "timestamp": "2025-12-24T11:32:59.661155+00:00", "meta": {"OBJECT_NAME": "YAOGAN-28", "OBJECT_ID": "2015-064A", "EPOCH": "2025-12-24T04:34:41.409120", "MEAN_MOTION": 15.24529315, "ECCENTRICITY": 0.0012668, "INCLINATION": 97.2817, "RA_OF_ASC_NODE": 135.6613, "ARG_OF_PERICENTER": 89.7485, "MEAN_ANOMALY": 270.5204, "EPHEMERIS_TYPE": 0, "CLASSIFICATION_TYPE": "U", "NORAD_CAT_ID": 41026, "ELEMENT_SET_NO": 999, "REV_AT_EPOCH": 56399, "BSTAR": 0.0003536, "MEAN_MOTION_DOT": 8.652e-05, "MEAN_MOTION_DDOT": 0}, "tle": {"line1": "1 41026U 15064A   25358.19075705  .00008652  00000+0  35360-3 0  9996", "line2": "2 41026  97.2817 135.6613 0012668  89.7485 270.5204 15.24529315563997"}}, "geometry": {"type": "Point", "coordinates": [-40.48130285168102, 25.996650777572345]}}, {"type": "Feature", "properties": {"norad_id": 41038, "name": "YAOGAN-29", "group": "resource", "lat": -62.26565044908546, "lon": 37.24517096333121, "alt_km": 627.7496500413117, "timestamp": "2025-12-24T11:32:59.661166+00:00", "meta": {"OBJECT_NAME": "YAOGAN-29", "OBJECT_ID": "2015-069A", "EPOCH": "2025-12-24T05:21:26.983872", "MEAN_MOTION": 14.82894344, "ECCENTRICITY": 8.2e-05, "INCLINATION": 98.0203, "RA_OF_ASC_NODE": 21.431, "ARG_OF_PERICENTER": 168.375, "MEAN_ANOMALY": 191.7482, "EPHEMERIS_TYPE": 0, "CLASSIFICATION_TYPE": "U", "NORAD_CAT_ID": 41038, "ELEMENT_SET_NO": 999, "REV_AT_EPOCH": 54469, "BSTAR": 9.0906e-05, "MEAN_MOTION_DOT": 6.83e-06, "MEAN_MOTION_DDOT": 0}, "tle": {"line1": "1 41038U 15069A   25358.22322898  .00000683  00000+0  90906-4 0  9990", "line2": "2 41038  98.0203  21.4310 0000820 168.3750 191.7482 14.82894344544698"}}, "geometry": {"type": "Point", "coordinates": [37.24517096333121, -62.26565044908546]}}, {"type": "Feature", "properties": {"norad_id": 41167, "name": "KENT RIDGE 1", "group": "resource", "lat": -10.021491762689491, "lon": -14.611977389693639, "alt_km": 497.4891929623918, "timestamp": "2025-12-24T11:32:59.661176+00:00", "meta": {"OBJECT_NAME": "KENT RIDGE 1", "OBJECT_ID": "2015-077B", "EPOCH": "2025-12-23T17:16:23.896128", "MEAN_MOTION": 15.21715063, "ECCENTRICITY": 0.00085411, "INCLINATION": 14.9789, "RA_OF_ASC_NODE": 129.6607, "ARG_OF_PERICENTER": 285.8156, "MEAN_ANOMALY": 74.1224, "EPHEMERIS_TYPE": 0, "CLASSIFICATION_TYPE": "U", "NORAD_CAT_ID": 41167, "ELEMENT_SET_NO": 999, "REV_AT_EPOCH": 55431, "BSTAR": 0.00016014637, "MEAN_MOTION_DOT": 4.493e-05, "MEAN_MOTION_DDOT": 0}, "tle": {"line1": "1 41167U 15077B   25357.71972102  .00004493  00000+0  16015-3 0  9995", "line2": "2 41167  14.9789 129.6607 0008541 285.8156  74.1224 15.21715063554312"}}, "geometry": {"type": "Point", "coordinates": [-14.611977389693639, -10.021491762689491]}}, {"type": "Feature", "properties": {"norad_id": 41194, "name": "GAOFEN-4", "group": "resource", "lat": -0.18646536089001972, "lon": 12.20788321620719, "alt_km": 35798.219382691306, "timestamp": "2025-12-24T11:32:59.661191+00:00", "meta": {"OBJECT_NAME": "GAOFEN-4", "OBJECT_ID": "2015-083A", "EPOCH": "2025-12-19T15:27:26.627616", "MEAN_MOTION": 1.00273138, "ECCENTRICITY": 0.0002945, "INCLINATION": 0.1878, "RA_OF_ASC_NODE": 81.7841, "ARG_OF_PERICENTER": 93.4275, "MEAN_ANOMALY": 250.8523, "EPHEMERIS_TYPE": 0, "CLASSIFICATION_TYPE": "U", "NORAD_CAT_ID": 41194, "ELEMENT_SET_NO": 999, "REV_AT_EPOCH": 3672, "BSTAR": 0, "MEAN_MOTION_DOT": -3.11e-06, "MEAN_MOTION_DDOT": 0}, "tle": {"line1": "1 41194U 15083A   25353.64405819 -.00000311  00000+0  00000+0 0  9995", "line2": "2 41194   0.1878  81.7841 0002945  93.4275 250.8523  1.00273138 36722"}}, "geometry": {"type": "Point", "coordinates": [12.20788321620719, -0.18646536089001972]}}, {"type": "Feature", "properties": {"norad_id": 41240, "name": "JASON-3", "group": "resource", "lat": 12.16041948598674, "lon": 138.6371408572262, "alt_km": 1312.3438245269417, "timestamp": "2025-12-24T11:32:59.661203+00:00", "meta": {"OBJECT_NAME": "JASON-3", "OBJECT_ID": "2016-002A", "EPOCH": "2025-12-24T02:09:37.859328", "MEAN_MOTION": 12.87626989, "ECCENTRICITY": 0.0007275, "INCLINATION": 66.0403, "RA_OF_ASC_NODE": 133.9614, "ARG_OF_PERICENTER": 271.4526, "MEAN_ANOMALY": 88.5659, "EPHEMERIS_TYPE": 0, "CLASSIFICATION_TYPE": "U", "NORAD_CAT_ID": 41240, "ELEMENT_SET_NO": 999, "REV_AT_EPOCH": 46470, "BSTAR": 6.9015e-05, "MEAN_MOTION_DOT": -4.5e-07, "MEAN_MOTION_DDOT": 0}, "tle": {"line1": "1 41240U 16002A   25358.09002152 -.00000045  00000+0  69015-4 0  9996", "line2": "2 41240  66.0403 133.9614 0007275 271.4526  88.5659 12.87626989464707"}}, "geometry": {"type": "Point", "coordinates": [138.6371408572262, 12.16041948598674]}}, {"type": "Feature", "properties": {"norad_id": 41335, "name": "SENTINEL-3A", "group": "resource", "lat": 33.37723029564072, "lon": -110.928115437534, "alt_km": 800.1400798544337, "timestamp": "2025-12-24T11:32:59.661214+00:00", "meta": {"OBJECT_NAME": "SENTINEL-3A", "OBJECT_ID": "2016-011A", "EPOCH": "2025-12-24T02:27:06.833952", "MEAN_MOTION": 14.26734946, "ECCENTRICITY": 8.95e-05, "INCLINATION": 98.6298, "RA_OF_ASC_NODE": 62.9561, "ARG_OF_PERICENTER": 96.7003, "MEAN_ANOMALY": 263.4279, "EPHEMERIS_TYPE": 0, "CLASSIFICATION_TYPE": "U", "NORAD_CAT_ID": 41335, "ELEMENT_SET_NO": 999, "REV_AT_EPOCH": 51309, "BSTAR": 7.5369e-05, "MEAN_MOTION_DOT": 1.39e-06, "MEAN_MOTION_DDOT": 0}, "tle": {"line1": "1 41335U 16011A   25358.10216243  .00000139  00000+0  75369-4 0  9993", "line2": "2 41335  98.6298  62.9561 0000895  96.7003 263.4279 14.26734946513093"}}, "geometry": {"type": "Point", "coordinates": [-110.928115437534, 33.37723029564072]}}]}